STARLINK-4390           
1 53653U 22105F   22265.25001157 -.00061976  00000+0 -10431-2 0  9991
2 53653  97.6540 144.1290 0002343 133.0291 178.1594 15.51860618  3736
STARLINK-4420           
1 53654U 22105G   22265.25001157 -.00037029  00000+0 -62207-3 0  9993
2 53654  97.6541 144.1294 0002454 138.2799 174.4981 15.51793016  3731
STARLINK-4470           
1 53655U 22105H   22265.25001157  .00000405  00000+0  85065-5 0  9999
2 53655  97.6548 144.1302 0002312 136.1307 175.4425 15.51781556  3734
STARLINK-4466           
1 53656U 22105J   22265.58334491  .00067494  00000+0  11253-2 0  9992
2 53656  97.6540 144.4872 0001754 134.1402 240.9864 15.51759020  3797
STARLINK-4469           
1 53657U 22105K   22265.25001157 -.00035840  00000+0 -60056-3 0  9995
2 53657  97.6548 144.1296 0002460 132.3894 179.9624 15.51857661  3732
STARLINK-4452           
1 53658U 22105L   22265.25001157 -.00042303  00000+0 -70985-3 0  9990
2 53658  97.6543 144.1299 0002371 136.8298 177.8955 15.51854255  3739
STARLINK-4463           
1 53659U 22105M   22265.25001157 -.00096865  00000+0 -16380-2 0  9991
2 53659  97.6538 144.1295 0002394 135.9388 177.5962 15.51867435  3734
STARLINK-4473           
1 53660U 22105N   22265.25001157 -.00098243  00000+0 -16607-2 0  9997
2 53660  97.6552 144.1314 0002513 141.4372 175.0641 15.51882320  3739
STARLINK-4472           
1 53661U 22105P   22265.25001157 -.00036413  00000+0 -61171-3 0  9996
2 53661  97.6549 144.1313 0002092 148.4319 166.7069 15.51791771  3735
STARLINK-4357           
1 53662U 22105Q   22265.25001157 -.00037697  00000+0 -63311-3 0  9990
2 53662  97.6547 144.1307 0002236 142.5885 175.5056 15.51806007  3733
STARLINK-4457           
1 53663U 22105R   22265.25001157 -.00052907  00000+0 -88991-3 0  9993
2 53663  97.6550 144.1307 0002122 141.1229 174.8160 15.51838625  3738
STARLINK-4471           
1 53664U 22105S   22265.25001157 -.00079340  00000+0 -13381-2 0  9994
2 53664  97.6537 144.1295 0002237 138.1390 180.7231 15.51874450  3733
STARLINK-4334           
1 53665U 22105T   22265.58334491  .00063990  00000+0  10676-2 0  9997
2 53665  97.6539 144.4858 0002035 134.4503 243.6470 15.51754378  3791
STARLINK-4449           
1 53666U 22105U   22265.25001157 -.00065701  00000+0 -11065-2 0  9999
2 53666  97.6545 144.1298 0002370 140.3468 179.6810 15.51858400  3733
STARLINK-4406           
1 53667U 22105V   22265.25001157 -.00129101  00000+0 -21908-2 0  9992
2 53667  97.6540 144.1312 0002192 143.5509 174.1250 15.51890122  3734
STARLINK-4458           
1 53668U 22105W   22265.25001157 -.00080681  00000+0 -13626-2 0  9990
2 53668  97.6539 144.1311 0002189 136.0683 184.6092 15.51840964  3737
STARLINK-4464           
1 53669U 22105X   22265.58334491  .00068295  00000+0  11387-2 0  9994
2 53669  97.6551 144.4865 0001823 144.8598 235.5817 15.51754446  3791
STARLINK-4459           
1 53670U 22105Y   22265.25001157 -.00001455  00000+0 -22691-4 0  9999
2 53670  97.6535 144.1294 0002388 134.6357 186.9578 15.51786031  3737
STARLINK-4440           
1 53671U 22105Z   22265.58334491  .00069154  00000+0  11526-2 0  9997
2 53671  97.6536 144.4862 0001883 144.0753 238.1261 15.51761245  3792
STARLINK-4428           
1 53672U 22105AA  22265.25001157 -.00130164  00000+0 -22081-2 0  9992
2 53672  97.6545 144.1287 0002248 141.0108 182.3739 15.51903123  3735
STARLINK-4456           
1 53673U 22105AB  22264.91667824 -.00826923  00000+0 -10325-1 0  9996
2 53673  97.6555 143.8532 0002609 153.9242 280.6739 15.62423322  1301
STARLINK-4620           
1 53674U 22105AC  22265.25001157 -.00138570  00000+0 -23547-2 0  9991
2 53674  97.6551 144.1280 0002317 144.0665 180.5286 15.51885880  3731
STARLINK-4617           
1 53675U 22105AD  22265.25001157 -.00040158  00000+0 -67481-3 0  9992
2 53675  97.6541 144.1293 0002296 143.2210 179.4293 15.51803866  3737
STARLINK-4621           
1 53676U 22105AE  22265.25001157 -.00062949  00000+0 -10597-2 0  9990
2 53676  97.6545 144.1262 0002470 143.3140 182.4565 15.51858312  3737
STARLINK-4579           
1 53677U 22105AF  22265.25001157 -.00040923  00000+0 -68829-3 0  9991
2 53677  97.6541 144.1289 0002205 136.3237 187.5124 15.51782309  3737
STARLINK-4418           
1 53678U 22105AG  22265.25001157 -.00098813  00000+0 -16712-2 0  9996
2 53678  97.6543 144.1261 0002118 133.3209 193.6219 15.51871479  3739
STARLINK-4632           
1 53679U 22105AH  22265.25001157 -.00098533  00000+0 -16659-2 0  9996
2 53679  97.6548 144.1273 0002289 141.9092 183.2818 15.51879364  3733
STARLINK-4630           
1 53680U 22105AJ  22265.25001157 -.00007510  00000+0 -12440-3 0  9998
2 53680  97.6546 144.1244 0001895 140.7122 187.2175 15.51780402  3738
STARLINK-4424           
1 53681U 22105AK  22265.25001157 -.00039705  00000+0 -66574-3 0  9997
2 53681  97.6539 144.1262 0002385 142.4727 183.8527 15.51862136  3734
STARLINK-4438           
1 53682U 22105AL  22265.25001157 -.00040912  00000+0 -68651-3 0  9998
2 53682  97.6545 144.1232 0002094 138.3027 191.0183 15.51847411  3731
STARLINK-4625           
1 53683U 22105AM  22265.25001157 -.00139400  00000+0 -23689-2 0  9991
2 53683  97.6549 144.1252 0002176 139.9761 187.5746 15.51888384  3730
STARLINK-4624           
1 53684U 22105AN  22264.91667824 -.01172508  00000+0 -19983-1 0  9991
2 53684  97.6556 143.8591 0002072 140.6208 271.5587 15.54266414  1306
STARLINK-4626           
1 53685U 22105AP  22265.25001157  .00004922  00000+0  84278-4 0  9994
2 53685  97.6548 144.1236 0002118 137.9037 190.5808 15.51767025  3734
STARLINK-4467           
1 53686U 22105AQ  22265.25001157 -.00039122  00000+0 -65759-3 0  9999
2 53686  97.6540 144.1216 0002158 126.0067 204.3049 15.51790275  3735
STARLINK-4569           
1 53687U 22105AR  22265.25001157 -.00103888  00000+0 -17574-2 0  9992
2 53687  97.6543 144.1227 0002422 136.9167 192.9679 15.51883839  3736
STARLINK-4571           
1 53688U 22105AS  22265.25001157 -.00049491  00000+0 -83189-3 0  9998
2 53688  97.6541 144.1212 0001951 134.2692 197.4142 15.51842294  3734
STARLINK-4562           
1 53689U 22105AT  22265.25001157 -.00039175  00000+0 -65700-3 0  9996
2 53689  97.6547 144.1211 0002257 128.2892 202.7687 15.51853735  3731
STARLINK-4570           
1 53690U 22105AU  22265.25001157 -.00071314  00000+0 -12021-2 0  9996
2 53690  97.6544 144.1211 0002665 125.1386 207.7589 15.51855507  3732
STARLINK-4560           
1 53691U 22105AV  22265.25001157 -.00126394  00000+0 -21439-2 0  9999
2 53691  97.6543 144.1193 0002262 126.2580 205.9992 15.51892501  3735
STARLINK-4572           
1 53692U 22105AW  22265.25001157 -.00042359  00000+0 -71103-3 0  9992
2 53692  97.6535 144.1196 0002288 142.5338 190.9097 15.51845543  3733
STARLINK-4566           
1 53693U 22105AX  22265.25001157 -.00041782  00000+0 -70276-3 0  9992
2 53693  97.6546 144.1173 0002232 137.4233 196.4024 15.51785670  3732
FALCON 9 DEB            
1 53694U 22105AY  22264.88185219  .00195969  16664-4  57018-3 0  9995
2 53694  97.6696 144.4210 0011008 182.0471 178.0759 15.92792652  3447
FALCON 9 DEB            
1 53695U 22105AZ  22264.74988657  .00205860  18287-4  58021-3 0  9998
2 53695  97.6668 144.2816 0009317 171.2859 188.8578 15.93430208  3420
FALCON 9 DEB            
1 53696U 22105BA  22264.92060912  .00235636  23837-4  59668-3 0  9993
2 53696  97.6659 144.5083 0013247 168.0340 192.1252 15.95358401  3452
FALCON 9 DEB            
1 53697U 22105BB  22264.72909926  .00229327  22686-4  58114-3 0  9995
2 53697  97.6666 144.2969 0012275 159.0417 201.1363 15.95369402  3420
YAOGAN-33 02            
1 53698U 22106A   22265.47525643  .00000219  00000+0  56143-4 0  9999
2 53698  98.1882 271.4067 0000683 108.8905 251.2380 14.59136739  2858
CZ-4C R/B               
1 53699U 22106B   22265.22158136  .00002027  00000+0  17164-3 0  9990
2 53699  98.2019 272.1329 0144607 348.5901  11.2043 14.91528178  2864
STARLINK-4725           
1 53700U 22107A   22265.25001157 -.00058074  00000+0 -41151-3 0  9995
2 53700  53.2139 188.2085 0001109 118.7898 314.5454 15.73240783  2823
STARLINK-4711           
1 53701U 22107B   22265.58334491  .00044708  00000+0  32201-3 0  9995
2 53701  53.2138 186.5555 0001414 124.8241  38.0815 15.73145629  2872
STARLINK-4724           
1 53702U 22107C   22265.25001157 -.00041774  00000+0 -29443-3 0  9996
2 53702  53.2139 188.2048 0001399 129.7326 305.4046 15.73220885  2820
STARLINK-4731           
1 53703U 22107D   22265.25001157 -.00019504  00000+0 -13483-3 0  9990
2 53703  53.2136 188.2095 0001251 114.9671 317.8014 15.73206981  2829
STARLINK-4714           
1 53704U 22107E   22265.25001157  .00027894  00000+0  20252-3 0  9992
2 53704  53.2139 188.2135 0001398 113.3615 317.5807 15.73197561  2821
STARLINK-4717           
1 53705U 22107F   22264.91667824 -.00047699  00000+0 -33642-3 0  9998
2 53705  53.2142 189.8601 0001329 131.2574 211.3197 15.73265319  1300
STARLINK-4716           
1 53706U 22107G   22265.25001157 -.00017012  00000+0 -11699-3 0  9992
2 53706  53.2138 188.2109 0001264 114.7571 317.4080 15.73209495  2823
STARLINK-4667           
1 53707U 22107H   22265.58334491  .00061335  00000+0  43898-3 0  9990
2 53707  53.2137 186.5508 0001312 129.2025  36.0447 15.73160817  2876
STARLINK-4694           
1 53708U 22107J   22265.58334491  .00048294  00000+0  34722-3 0  9996
2 53708  53.2136 186.5545 0001205 122.9672  40.5218 15.73153879  2872
STARLINK-4685           
1 53709U 22107K   22265.58334491  .00040600  00000+0  29302-3 0  9998
2 53709  53.2138 186.5656 0001623 127.1557  30.9861 15.73141521  2879
STARLINK-4696           
1 53710U 22107L   22265.58334491  .00186366  24059-4  55598-3 0  9991
2 53710  53.2120 185.1290 0008457 329.8301 167.4986 15.92015748  2899
STARLINK-4627           
1 53711U 22107M   22264.91667824  .00025146  00000+0  18330-3 0  9993
2 53711  53.2142 189.8664 0001367 124.8002 214.8422 15.73167256  1302
